GAOFEN-11 01            
1 43585U 18063A   26154.91780809  .00014662  00000+0  22089-3 0  9995
2 43585  97.1295 221.8371 0004603  43.7486 316.4133 15.54885420438287
ICESAT-2                
1 43613U 18070A   26154.86267751  .00010516  00000+0  38178-3 0  9995
2 43613  92.0072 287.3809 0004633 122.9690 237.2006 15.28272796430423
HYSIS                   
1 43719U 18096A   26154.94830854  .00001422  00000+0  20106-3 0  9997
2 43719  97.9842 221.7988 0001553 118.4200 241.7168 14.78667104405464
KAZSTSAT                
1 43783U 18099AB  26154.62100728  .00001344  00000+0  11300-3 0  9995
2 43783  97.4265 187.1671 0007359 105.1512 255.0526 14.99828694409277
SAUDISAT 5A             
1 43831U 18102A   26154.93620277  .00006017  00000+0  22331-3 0  9992
2 43831  97.3070 216.7734 0009933 171.2889 188.8525 15.27903789413654
SAUDISAT 5B             
1 43833U 18102C   26154.95730447  .00005500  00000+0  20273-3 0  9996
2 43833  97.3177 219.8397 0010578 174.1397 185.9969 15.28167981413776
GAOFEN-10R              
1 44622U 19066A   26154.92971041  .00001359  00000+0  17383-3 0  9993
2 44622  98.0497 108.4130 0005684 165.4541 194.6837 14.83029812360413
CARTOSAT-3              
1 44804U 19081A   26154.91861119  .00004451  00000+0  21345-3 0  9994
2 44804  97.4306 216.9983 0012218 190.9768 169.1202 15.19350600361453
GAOFEN-12 01            
1 44819U 19082A   26154.96761584  .00000453  00000+0  65871-4 0  9992
2 44819  97.8101 161.6961 0002527  86.1133 274.0368 14.80447086352138
CSG-1                   
1 44873U 19092A   26154.88678810  .00000501  00000+0  69534-4 0  9997
2 44873  97.8886 338.6821 0001441  90.5500 269.5878 14.82152822349505
NEMO-HD                 
1 46277U 20061F   26154.97738498  .00011564  00000+0  25281-3 0  9995
2 46277  97.1923 217.0658 0002668  95.9047 264.2506 15.44314640319947
SENTINEL-6A             
1 46984U 20086A   26154.42219424 -.00000056  00000+0  23288-4 0  9991
2 46984  66.0385 163.6427 0007953 270.2371  89.7732 12.80929590258563
CAS500-1                
1 47932U 21022A   26154.89825561  .00022651  00000+0  10469-2 0  9991
2 47932  97.3918  50.4197 0004804 354.7688   5.3496 15.20172297288749
GAOFEN-12 02            
1 48079U 21026A   26154.97726347  .00000418  00000+0  61862-4 0  9991
2 48079  97.9920 153.2121 0003342 281.8432  78.2405 14.80285163279801
PLEIADES NEO 3          
1 48268U 21034A   26153.39599667  .00001403  00000+0  18488-3 0  9998
2 48268  97.8935 228.3753 0001471  92.5758 267.5623 14.81680615275465
PLEIADES NEO 4          
1 49070U 21073E   26154.91547319  .00001593  00000+0  20894-3 0  9993
2 49070  97.8931 229.8685 0001440  88.1413 271.9965 14.81675081259403
LANDSAT 9               
1 49260U 21088A   26154.80588005  .00000392  00000+0  96964-4 0  9993
2 49260  98.1855 225.1489 0001500  95.3706 264.7664 14.57124748249054
CSG-2                   
1 51444U 22008A   26154.92053260  .00000122  00000+0  21934-4 0  9992
2 51444  97.8879 338.7105 0001440  84.6548 275.4830 14.82162810234628
GAOFEN-12 03            
1 52912U 22069A   26154.93715578  .00001246  00000+0  17143-3 0  9992
2 52912  97.8296  43.1409 0001483 112.8527 247.2842 14.80013855212655
SWOT                    
1 54754U 22173A   26154.84066021  .00000089  00000+0  62178-4 0  9999
2 54754  77.6113  53.3269 0000200  99.9524 260.1650 14.00173112177285
GAOFEN-12 04            
1 57654U 23123A   26154.95557184  .00001149  00000+0  15798-3 0  9997
2 57654  97.9130  73.1632 0001759  89.0985 271.0429 14.80201574150677
PARS 1                  
1 59065U 24039Q   26154.97756377  .00011587  00000+0  24351-3 0  9991
2 59065  97.4823 135.4849 0010451 151.9260 208.2554 15.45440902126604
RESURS-P 4              
1 59371U 24061A   26154.93941671  .00003372  00000+0  11143-3 0  9993
2 59371  97.2752 103.0704 0001161 128.7900 231.3446 15.32051579121735
LEGION 1                
1 59625U 24081A   26154.89946769  .00004472  00000+0  23228-3 0  9994
2 59625  97.5016 232.8991 0010623  60.2369 299.9920 15.16568887115528
LEGION 2                
1 59626U 24081B   26154.86329153  .00003864  00000+0  20121-3 0  9997
2 59626  97.5016 232.9613 0012078  30.1330 330.0596 15.16549230115528
ALOS-4 (DAICHI-4)       
1 60182U 24123A   26154.90246453  .00001747  00000+0  24077-3 0  9991
2 60182  97.9238 252.2627 0001692  99.5832 260.5571 14.79464813103914
LEGION 3                
1 60452U 24146A   26154.88605751  .00004170  00000+0  22728-3 0  9997
2 60452  45.0008 101.8852 0006716  84.4774 275.6871 15.15930706100009
LEGION 4                
1 60453U 24146B   26154.55962031  .00003636  00000+0  19966-3 0  9995
2 60453  44.9995 195.5478 0013880 237.6473 122.3062 15.15934637 98806
SENTINEL-2C             
1 60989U 24157A   26154.18651448  .00000128  00000+0  65613-4 0  9991
2 60989  98.5693 229.1659 0001257  79.7674 280.3651 14.30813757 90983
IONOSFERA-M 1           
1 61735U 24199A   26154.90217967  .00000061  00000+0  46678-4 0  9997
2 61735  98.7188  28.2137 0001511 127.9896 232.1418 14.22751773125815
