OBJECT_NAME,OBJECT_ID,EPOCH,MEAN_MOTION,ECCENTRICITY,INCLINATION,RA_OF_ASC_NODE,ARG_OF_PERICENTER,MEAN_ANOMALY,EPHEMERIS_TYPE,CLASSIFICATION_TYPE,NORAD_CAT_ID,ELEMENT_SET_NO,REV_AT_EPOCH,BSTAR,MEAN_MOTION_DOT,MEAN_MOTION_DDOT
GAOFEN-11 01,2018-063A,2026-06-03T22:01:38.618976,15.54885420,.00046038,97.1295,221.8371,43.7486,316.4133,0,U,43585,999,43828,.22088816E-3,.14662E-3,0
ICESAT-2,2018-070A,2026-06-03T20:42:15.336864,15.28272796,.00046335,92.0072,287.3809,122.9690,237.2006,0,U,43613,999,43042,.38178344E-3,.10516E-3,0
HYSIS,2018-096A,2026-06-03T22:45:33.857856,14.78667104,.00015538,97.9842,221.7988,118.4200,241.7168,0,U,43719,999,40546,.20106125E-3,.1422E-4,0
KAZSTSAT,2018-099AB,2026-06-03T14:54:15.028992,14.99828694,.00073592,97.4265,187.1671,105.1512,255.0526,0,U,43783,999,40927,.11299607E-3,.1344E-4,0
SAUDISAT 5A,2018-102A,2026-06-03T22:28:07.919328,15.27903789,.00099339,97.3070,216.7734,171.2889,188.8525,0,U,43831,999,41365,.22331071E-3,.6017E-4,0
SAUDISAT 5B,2018-102C,2026-06-03T22:58:31.106208,15.28167981,.0010578,97.3177,219.8397,174.1397,185.9969,0,U,43833,999,41377,.20272798E-3,.55E-4,0
GAOFEN-10R,2019-066A,2026-06-03T22:18:46.979424,14.83029812,.0005684,98.0497,108.4130,165.4541,194.6837,0,U,44622,999,36041,.17382946E-3,.1359E-4,0
CARTOSAT-3,2019-081A,2026-06-03T22:02:48.006816,15.19350600,.00122181,97.4306,216.9983,190.9768,169.1202,0,U,44804,999,36145,.21344821E-3,.4451E-4,0
GAOFEN-12 01,2019-082A,2026-06-03T23:13:22.008576,14.80447086,.00025277,97.8101,161.6961,86.1133,274.0368,0,U,44819,999,35213,.65870522E-4,.453E-5,0
CSG-1,2019-092A,2026-06-03T21:16:58.491840,14.82152822,.00014412,97.8886,338.6821,90.5500,269.5878,0,U,44873,999,34950,.69533741E-4,.501E-5,0
NEMO-HD,2020-061F,2026-06-03T23:27:26.062272,15.44314640,.00026684,97.1923,217.0658,95.9047,264.2506,0,U,46277,999,31994,.25280917E-3,.11564E-3,0
SENTINEL-6A,2020-086A,2026-06-03T10:07:57.582336,12.80929590,.0007953,66.0385,163.6427,270.2371,89.7732,0,U,46984,999,25856,.23287938E-4,-.56E-6,0
CAS500-1,2021-022A,2026-06-03T21:33:29.284704,15.20172297,.00048043,97.3918,50.4197,354.7688,5.3496,0,U,47932,999,28874,.10468767E-2,.22651E-3,0
GAOFEN-12 02,2021-026A,2026-06-03T23:27:15.563808,14.80285163,.0003342,97.9920,153.2121,281.8432,78.2405,0,U,48079,999,27980,.6186242E-4,.418E-5,0
PLEIADES NEO 3,2021-034A,2026-06-02T09:30:14.112288,14.81680615,.00014715,97.8935,228.3753,92.5758,267.5623,0,U,48268,999,27546,.18487892E-3,.1403E-4,0
PLEIADES NEO 4,2021-073E,2026-06-03T21:58:16.883616,14.81675081,.00014407,97.8931,229.8685,88.1413,271.9965,0,U,49070,999,25940,.20894355E-3,.1593E-4,0
LANDSAT 9,2021-088A,2026-06-03T19:20:28.036320,14.57124748,.00015008,98.1855,225.1489,95.3706,264.7664,0,U,49260,999,24905,.96963554E-4,.392E-5,0
CSG-2,2022-008A,2026-06-03T22:05:34.016640,14.82162810,.00014401,97.8879,338.7105,84.6548,275.4830,0,U,51444,999,23462,.21933803E-4,.122E-5,0
GAOFEN-12 03,2022-069A,2026-06-03T22:29:30.259392,14.80013855,.00014832,97.8296,43.1409,112.8527,247.2842,0,U,52912,999,21265,.17143328E-3,.1246E-4,0
SWOT,2022-173A,2026-06-03T20:10:33.042144,14.00173112,.00002005,77.6113,53.3269,99.9524,260.1650,0,U,54754,999,17728,.62177885E-4,.89E-6,0
GAOFEN-12 04,2023-123A,2026-06-03T22:56:01.406976,14.80201574,.00017597,97.9130,73.1632,89.0985,271.0429,0,U,57654,999,15067,.15797954E-3,.1149E-4,0
PARS 1,2024-039Q,2026-06-03T23:27:41.509728,15.45440902,.00104513,97.4823,135.4849,151.9260,208.2554,0,U,59065,999,12660,.24351217E-3,.11587E-3,0
RESURS-P 4,2024-061A,2026-06-03T22:32:45.603744,15.32051579,.0001161,97.2752,103.0704,128.7900,231.3446,0,U,59371,999,12173,.11142658E-3,.3372E-4,0
LEGION 1,2024-081A,2026-06-03T21:35:14.008416,15.16568887,.00106238,97.5016,232.8991,60.2369,299.9920,0,U,59625,999,11552,.23227642E-3,.4472E-4,0
LEGION 2,2024-081B,2026-06-03T20:43:08.388192,15.16549230,.00120784,97.5016,232.9613,30.1330,330.0596,0,U,59626,999,11552,.20120866E-3,.3864E-4,0
ALOS-4 (DAICHI-4),2024-123A,2026-06-03T21:39:32.935392,14.79464813,.00016926,97.9238,252.2627,99.5832,260.5571,0,U,60182,999,10391,.2407749E-3,.1747E-4,0
LEGION 3,2024-146A,2026-06-03T21:15:55.368864,15.15930706,.00067169,45.0008,101.8852,84.4774,275.6871,0,U,60452,999,10000,.22727947E-3,.417E-4,0
LEGION 4,2024-146B,2026-06-03T13:25:51.194784,15.15934637,.00138808,44.9995,195.5478,237.6473,122.3062,0,U,60453,999,9880,.19965549E-3,.3636E-4,0
SENTINEL-2C,2024-157A,2026-06-03T04:28:34.851072,14.30813757,.00012579,98.5693,229.1659,79.7674,280.3651,0,U,60989,999,9098,.65612636E-4,.128E-5,0
IONOSFERA-M 1,2024-199A,2026-06-03T21:39:08.323488,14.22751773,.00015114,98.7188,28.2137,127.9896,232.1418,0,U,61735,999,12581,.46678185E-4,.61E-6,0
